NORAD_CAT_ID,OBJECT_NAME,OBJECT_TYPE,EPOCH,MEAN_MOTION,ECCENTRICITY,INCLINATION,RA_OF_ASC_NODE,ARG_OF_PERICENTER,MEAN_ANOMALY,BSTAR,MEAN_MOTION_DOT,MEAN_MOTION_DDOT,TLE_LINE0,TLE_LINE1,TLE_LINE2,SEMIMAJOR_AXIS,PERIOD,APOGEE,PERIGEE,DECAYED
53574.0,STARLINK-4559,PAYLOAD,2023-06-19 18:52:35,15.08837604,6.73e-05,53.2163,195.638,75.9867,284.12,7.6487e-05,9.3e-06,0.0,0 STARLINK-4559,1 53574U 22101AZ  23170.78651641  .00000930  00000-0  76487-4 0  9999,2 53574  53.2163 195.6380 0000673  75.9867 284.1200 15.08837604 46409,6917.888,95.438,540.218,539.287,0.0
53574.0,STARLINK-4559,PAYLOAD,2023-06-20 02:49:30,15.08837146,6.77e-05,53.2159,194.1503,76.9224,283.1843,0.00010762,1.425e-05,0.0,0 STARLINK-4559,1 53574U 22101AZ  23171.11771648  .00001425  00000-0  10762-3 0  9990,2 53574  53.2159 194.1503 0000677  76.9224 283.1843 15.08837146 46455,6917.889,95.438,540.222,539.286,0.0
53574.0,STARLINK-4559,PAYLOAD,2023-06-20 07:35:40,15.08838805,6.85e-05,53.2159,193.2582,76.4695,283.6373,0.00011506,1.544e-05,0.0,0 STARLINK-4559,1 53574U 22101AZ  23171.31643558  .00001544  00000-0  11506-3 0  9999,2 53574  53.2159 193.2582 0000685  76.4695 283.6373 15.08838805 46487,6917.884,95.438,540.223,539.275,0.0
53574.0,STARLINK-4559,PAYLOAD,2023-06-21 07:26:26,15.08843853,7.15e-05,53.216,188.7977,74.2843,285.8228,5.3679e-05,5.67e-06,0.0,0 STARLINK-4559,1 53574U 22101AZ  23172.31003378  .00000567  00000-0  53679-4 0  9992,2 53574  53.2160 188.7977 0000715  74.2843 285.8228 15.08843853 46630,6917.869,95.437,540.228,539.239,0.0
53574.0,STARLINK-4559,PAYLOAD,2023-06-21 18:34:08,15.08842476,7.39e-05,53.2161,186.7165,71.9532,288.154,4.1965e-05,3.8e-06,0.0,0 STARLINK-4559,1 53574U 22101AZ  23172.77371404  .00000380  00000-0  41965-4 0  9998,2 53574  53.2161 186.7165 0000739  71.9532 288.1540 15.08842476 46704,6917.873,95.437,540.249,539.227,0.0
53574.0,STARLINK-4559,PAYLOAD,2023-06-22 07:17:14,15.08840728,7.26e-05,53.216,184.3376,74.6389,285.4683,2.5895e-05,1.25e-06,0.0,0 STARLINK-4559,1 53574U 22101AZ  23173.30363508  .00000125  00000-0  25895-4 0  9995,2 53574  53.2160 184.3376 0000726  74.6389 285.4683 15.08840728 46781,6917.878,95.438,540.245,539.241,0.0
53574.0,STARLINK-4559,PAYLOAD,2023-06-24 00:37:15,15.08835511,7.31e-05,53.2156,176.6056,72.8876,287.2196,3.0106e-05,1.91e-06,0.0,0 STARLINK-4559,1 53574U 22101AZ  23175.02587960  .00000191  00000-0  30106-4 0  9990,2 53574  53.2156 176.6056 0000731  72.8876 287.2196 15.08835511 47045,6917.894,95.438,540.265,539.253,0.0
53574.0,STARLINK-4559,PAYLOAD,2023-06-25 03:38:49,15.08838606,7.92e-05,53.2159,171.5511,71.676,288.4318,7.2567e-05,8.67e-06,0.0,0 STARLINK-4559,1 53574U 22101AZ  23176.15195923  .00000867  00000-0  72567-4 0  9996,2 53574  53.2159 171.5511 0000792  71.6760 288.4318 15.08838606 47210,6917.885,95.438,540.298,539.202,0.0
53574.0,STARLINK-4559,PAYLOAD,2023-06-26 06:40:22,15.08838438,8.37e-05,53.2159,166.496,71.3844,288.7239,4.6102e-05,4.46e-06,0.0,0 STARLINK-4559,1 53574U 22101AZ  23177.27804226  .00000446  00000-0  46102-4 0  9992,2 53574  53.2159 166.4960 0000837  71.3844 288.7239 15.08838438 47387,6917.885,95.438,540.329,539.171,0.0
53574.0,STARLINK-4559,PAYLOAD,2023-06-27 16:03:28,15.08838349,9.13e-05,53.2167,160.2516,77.4478,282.6616,3.6645e-05,2.96e-06,0.0,0 STARLINK-4559,1 53574U 22101AZ  23178.66908540  .00000296  00000-0  36645-4 0  9994,2 53574  53.2167 160.2516 0000913  77.4478 282.6616 15.08838349 47596,6917.885,95.438,540.382,539.119,0.0
53574.0,STARLINK-4559,PAYLOAD,2023-06-28 23:51:11,15.08836252,9.73e-05,53.2167,154.3051,76.7229,283.3871,6.0135e-05,6.69e-06,0.0,0 STARLINK-4559,1 53574U 22101AZ  23179.99388640  .00000669  00000-0  60135-4 0  9999,2 53574  53.2167 154.3051 0000973  76.7229 283.3871 15.08836252 47790,6917.892,95.438,540.43,539.084,0.0
53574.0,STARLINK-4559,PAYLOAD,2023-07-01 01:08:09,15.0883192,0.0001083,53.2162,145.0842,92.9114,267.2002,-5.7803e-05,-1.207e-05,0.0,0 STARLINK-4559,1 53574U 22101AZ  23182.04733152 -.00001207  00000-0 -57803-4 0  9990,2 53574  53.2162 145.0842 0001083  92.9114 267.2002 15.08831920 48106,6917.905,95.438,540.519,539.021,0.0
53574.0,STARLINK-4559,PAYLOAD,2023-07-02 00:58:56,15.08836735,0.0001102,53.2169,140.6232,93.1912,266.9206,6.4076e-06,-1.86e-06,0.0,0 STARLINK-4559,1 53574U 22101AZ  23183.04092985 -.00000186  00000-0  64076-5 0  9998,2 53574  53.2169 140.6232 0001102  93.1912 266.9206 15.08836735 48255,6917.89,95.438,540.518,538.993,0.0
53574.0,STARLINK-4559,PAYLOAD,2023-07-03 02:25:06,15.08836734,0.0001041,53.2169,135.8691,95.7603,264.3508,9.5907e-05,1.239e-05,0.0,0 STARLINK-4559,1 53574U 22101AZ  23184.10077032  .00001239  00000-0  95907-4 0  9997,2 53574  53.2169 135.8691 0001041  95.7603 264.3508 15.08836734 48411,6917.89,95.438,540.476,539.035,0.0
53574.0,STARLINK-4559,PAYLOAD,2023-07-04 02:15:54,15.08833681,0.0001121,53.2172,131.4086,94.6782,265.4339,-4.0388e-06,-3.52e-06,0.0,0 STARLINK-4559,1 53574U 22101AZ  23185.09437843 -.00000352  00000-0 -40388-5 0  9997,2 53574  53.2172 131.4086 0001121  94.6782 265.4339 15.08833681 48568,6917.9,95.438,540.54,538.989,0.0
53574.0,STARLINK-4559,PAYLOAD,2023-07-05 00:31:17,15.0883959,0.0001133,53.217,127.2449,91.8815,268.2307,3.0839e-05,2.03e-06,0.0,0 STARLINK-4559,1 53574U 22101AZ  23186.02173478  .00000203  00000-0  30839-4 0  9994,2 53574  53.2170 127.2449 0001133  91.8815 268.2307 15.08839590 48708,6917.882,95.438,540.53,538.963,0.0
53574.0,STARLINK-4559,PAYLOAD,2023-07-06 01:57:28,15.08833899,0.0001108,53.2166,122.4865,88.4887,271.6232,4.6785e-05,4.57e-06,0.0,0 STARLINK-4559,1 53574U 22101AZ  23187.08157836  .00000457  00000-0  46785-4 0  9999,2 53574  53.2166 122.4865 0001108  88.4887 271.6232 15.08833899 48863,6917.899,95.438,540.531,538.998,0.0
53574.0,STARLINK-4559,PAYLOAD,2023-07-06 05:08:14,15.08842065,0.0001186,53.2168,121.8911,87.9966,272.1162,6.5619e-05,7.57e-06,0.0,0 STARLINK-4559,1 53574U 22101AZ  23187.21405304  .00000757  00000-0  65619-4 0  9990,2 53574  53.2168 121.8911 0001186  87.9966 272.1162 15.08842065 48883,6917.874,95.437,540.56,538.919,0.0
53574.0,STARLINK-4559,PAYLOAD,2023-07-07 04:59:00,15.08851904,0.0001184,53.2169,117.4308,91.0973,269.0155,9.5864e-05,1.239e-05,0.0,0 STARLINK-4559,1 53574U 22101AZ  23188.20764368  .00001239  00000-0  95864-4 0  9999,2 53574  53.2169 117.4308 0001184  91.0973 269.0155 15.08851904 49034,6917.844,95.437,540.528,538.89,0.0
53574.0,STARLINK-4559,PAYLOAD,2023-07-07 12:55:57,15.08833641,0.0001786,53.2175,115.944,91.4755,268.6442,-3.2013e-05,-7.97e-06,0.0,0 STARLINK-4559,1 53574U 22101AZ  23188.53886081 -.00000797  00000-0 -32013-4 0  9999,2 53574  53.2175 115.9440 0001786  91.4755 268.6442 15.08833641 49088,6917.9,95.438,541.0,538.529,0.0
53574.0,STARLINK-4559,PAYLOAD,2023-07-08 19:08:16,15.08838505,0.0001424,53.218,110.2922,104.2167,255.8983,-5.1187e-05,-1.102e-05,0.0,0 STARLINK-4559,1 53574U 22101AZ  23189.79741894 -.00001102  00000-0 -51187-4 0  9994,2 53574  53.2180 110.2922 0001424 104.2167 255.8983 15.08838505 49279,6917.885,95.438,540.735,538.765,0.0
53574.0,STARLINK-4559,PAYLOAD,2023-07-10 04:31:22,15.08839393,0.0001262,53.2176,104.0507,95.8239,264.2897,7.1563e-05,8.51e-06,0.0,0 STARLINK-4559,1 53574U 22101AZ  23191.18845790  .00000851  00000-0  71563-4 0  9998,2 53574  53.2176 104.0507 0001262  95.8239 264.2897 15.08839393 49486,6917.882,95.438,540.62,538.874,0.0
53574.0,STARLINK-4559,PAYLOAD,2023-07-11 02:46:47,15.08838179,0.000121,53.2175,99.8875,93.8692,266.2438,3.9497e-05,3.41e-06,0.0,0 STARLINK-4559,1 53574U 22101AZ  23192.11582246  .00000341  00000-0  39497-4 0  9990,2 53574  53.2175  99.8875 0001210  93.8692 266.2438 15.08838179 49628,6917.886,95.438,540.588,538.914,0.0
53574.0,STARLINK-4559,PAYLOAD,2023-07-12 04:12:56,15.08844913,0.0001176,53.2177,95.1301,91.8314,268.2813,0.00014007,1.942e-05,0.0,0 STARLINK-4559,1 53574U 22101AZ  23193.17565678  .00001942  00000-0  14007-3 0  9994,2 53574  53.2177  95.1301 0001176  91.8314 268.2813 15.08844913 49782,6917.865,95.437,540.544,538.917,0.0
53574.0,STARLINK-4559,PAYLOAD,2023-07-13 00:52:58,15.08843093,0.0001332,53.218,91.2629,75.0851,285.0288,1.6389e-05,-2.7e-07,0.0,0 STARLINK-4559,1 53574U 22101AZ  23194.03678368 -.00000027  00000-0  16389-4 0  9991,2 53574  53.2180  91.2629 0001332  75.0851 285.0288 15.08843093 49916,6917.871,95.437,540.657,538.814,0.0
53574.0,STARLINK-4559,PAYLOAD,2023-07-14 16:37:36,15.08843575,0.0001267,53.2179,83.8284,89.5824,270.5314,3.5283e-05,2.74e-06,0.0,0 STARLINK-4559,1 53574U 22101AZ  23195.69278111  .00000274  00000-0  35283-4 0  9993,2 53574  53.2179  83.8284 0001267  89.5824 270.5314 15.08843575 50168,6917.869,95.437,540.611,538.858,0.0
53574.0,STARLINK-4559,PAYLOAD,2023-07-15 02:09:54,15.08859125,0.0001278,53.2175,82.0449,94.4392,265.6746,3.3611e-05,2.47e-06,0.0,0 STARLINK-4559,1 53574U 22101AZ  23196.09021025  .00000247  00000-0  33611-4 0  9991,2 53574  53.2175  82.0449 0001278  94.4392 265.6746 15.08859125 50224,6917.822,95.436,540.571,538.803,0.0
53574.0,STARLINK-4559,PAYLOAD,2023-07-15 16:28:23,15.08840222,0.0001265,53.2179,79.3667,96.6794,263.4343,2.9071e-05,1.75e-06,0.0,0 STARLINK-4559,1 53574U 22101AZ  23196.68638208  .00000175  00000-0  29071-4 0  9998,2 53574  53.2179  79.3667 0001265  96.6794 263.4343 15.08840222 50312,6917.88,95.438,540.62,538.87,0.0
53574.0,STARLINK-4559,PAYLOAD,2023-07-16 16:19:11,15.08837049,0.0001144,53.2176,74.9074,100.8527,259.2594,-0.00010171,-1.906e-05,0.0,0 STARLINK-4559,1 53574U 22101AZ  23197.67998996 -.00001906  00000-0 -10171-3 0  9996,2 53574  53.2176  74.9074 0001144 100.8527 259.2594 15.08837049 50460,6917.889,95.438,540.546,538.963,0.0
53574.0,STARLINK-4559,PAYLOAD,2023-07-17 08:13:01,15.08846238,0.0001111,53.218,71.9367,92.0021,268.1098,-5.7338e-05,-1.2e-05,0.0,0 STARLINK-4559,1 53574U 22101AZ  23198.34238283 -.00001200  00000-0 -57338-4 0  9991,2 53574  53.2180  71.9367 0001111  92.0021 268.1098 15.08846238 50561,6917.861,95.437,540.495,538.958,0.0
